[{"OBJECT_NAME":"STARLINK-31195","OBJECT_ID":"2024-012K","EPOCH":"2026-03-08T14:17:25.487232","MEAN_MOTION":15.2759086,"ECCENTRICITY":0.00012135,"INCLINATION":43.0011,"RA_OF_ASC_NODE":171.8589,"ARG_OF_PERICENTER":278.6166,"MEAN_ANOMALY":81.4548,"EPHEMERIS_TYPE":0,"CLASSIFICATION_TYPE":"U","NORAD_CAT_ID":58796,"ELEMENT_SET_NO":999,"REV_AT_EPOCH":12106,"BSTAR":3.7317909e-5,"MEAN_MOTION_DOT":7.65e-6,"MEAN_MOTION_DDOT":0},{"OBJECT_NAME":"OBJECT C","OBJECT_ID":"2024-092C","EPOCH":"2026-03-09T23:10:26.961312","MEAN_MOTION":15.27308901,"ECCENTRICITY":0.00097974,"INCLINATION":97.6475,"RA_OF_ASC_NODE":197.1606,"ARG_OF_PERICENTER":169.1353,"MEAN_ANOMALY":191.0098,"EPHEMERIS_TYPE":0,"CLASSIFICATION_TYPE":"U","NORAD_CAT_ID":59775,"ELEMENT_SET_NO":999,"REV_AT_EPOCH":10042,"BSTAR":0.00057925748,"MEAN_MOTION_DOT":0.00015454,"MEAN_MOTION_DDOT":0}]
